idElset,classificationMarking,satNo,epoch,meanMotion,idOnOrbit,uct,eccentricity,inclination,raan,argOfPerigee,meanAnomaly,bStar,meanMotionDot,meanMotionDDot,semiMajorAxis,period,apogee,perigee,origObjectId,line1,line2,createdAt,createdBy,source,dataMode,ephemType,origNetwork,elset
7555c76e-54ca-4ac1-a519-9a7b85c4b9bd,U//PR-EXO-ELSETS,18718,2025-08-09T17:08:40.792843Z,1.008228147867357,18718,False,0.006698685244299949,11.31386991372569,328.7028083760364,270.3071238166119,152.8027718494333,0.0,0.0,0.0,42010.96432272536,1428.248162924179,42292.38254953281,41729.54609591791,18718,1 18718U 87109D   25221.71436103 +.00000000 +00000+0 +00000+0 2 99996,2 18718  11.3139 328.7028 0066986 270.3071 152.8028  1.00822814000002,2025-08-09T17:42:30.347Z,system.exo,EXO,REAL,2,OPS1,"{'NORAD_ID': 18718, 'classification': 'U', 'COSPAR_ID': '87109D', 'BC': 0.0, 'n_ddot': 0.0, 'B_star': 0.0, 'ephemeris_type': 2, 'elset_num': 9999, 'inclination': 11.3139, 'RAAN': 328.7028, 'eccentricity': 0.0066986, 'perigee': 270.3071, 'mean_anomaly': 152.8028, 'mean_motion': 1.00822814, 'rev_num': 0, 'line1': '1 18718U 87109D   25221.71436103 +.00000000 +00000+0 +00000+0 2 99996', 'line2': '2 18718  11.3139 328.7028 0066986 270.3071 152.8028  1.00822814000002', 'epoch': datetime.datetime(2025, 8, 9, 17, 8, 40, 792992)}"
10c54067-8f99-44ec-a412-a97f1cc2960b,U//PR-EXO-ELSETS,15630,2025-08-09T18:49:55.899019Z,1.012259681329759,15630,False,0.001514751867034135,8.779793185181681,310.8872131002775,240.4367976037619,167.1584297107797,0.0,0.0,0.0,41899.34524888788,1422.559869329517,41962.81236033114,41835.87813744462,15630,1 15630U 85024D   25221.78467476 +.00000000 +00000+0 +00000+0 2 99994,2 15630   8.7798 310.8872 0015147 240.4368 167.1584  1.01225968000006,2025-08-09T20:27:29.976Z,system.exo,EXO,REAL,2,OPS1,"{'NORAD_ID': 15630, 'classification': 'U', 'COSPAR_ID': '85024D', 'BC': 0.0, 'n_ddot': 0.0, 'B_star': 0.0, 'ephemeris_type': 2, 'elset_num': 9999, 'inclination': 8.7798, 'RAAN': 310.8872, 'eccentricity': 0.0015147, 'perigee': 240.4368, 'mean_anomaly': 167.1584, 'mean_motion': 1.01225968, 'rev_num': 0, 'line1': '1 15630U 85024D   25221.78467476 +.00000000 +00000+0 +00000+0 2 99994', 'line2': '2 15630   8.7798 310.8872 0015147 240.4368 167.1584  1.01225968000006', 'epoch': datetime.datetime(2025, 8, 9, 18, 49, 55, 899264)}"
1d58a320-bf04-4a3c-95ae-c27c8442e3cb,U//PR-EXO-ELSETS,15484,2025-08-09T20:33:40.949019Z,1.002576119319202,15484,False,0.0004367364340308373,9.717805910600267,317.5103152164251,222.9367597624631,76.33346480511786,0.0,0.0,0.0,42168.7077070941,1436.299920027848,42187.12431812578,42150.29109606241,15484,1 15484U 85007A   25221.85672395 +.00000000 +00000+0 +00000+0 2 99998,2 15484   9.7178 317.5103 0004367 222.9368  76.3335  1.00257611000008,2025-08-09T21:15:30.538Z,system.exo,EXO,REAL,2,OPS1,"{'NORAD_ID': 15484, 'classification': 'U', 'COSPAR_ID': '85007A', 'BC': 0.0, 'n_ddot': 0.0, 'B_star': 0.0, 'ephemeris_type': 2, 'elset_num': 9999, 'inclination': 9.7178, 'RAAN': 317.5103, 'eccentricity': 0.0004367, 'perigee': 222.9368, 'mean_anomaly': 76.3335, 'mean_motion': 1.00257611, 'rev_num': 0, 'line1': '1 15484U 85007A   25221.85672395 +.00000000 +00000+0 +00000+0 2 99998', 'line2': '2 15484   9.7178 317.5103 0004367 222.9368  76.3335  1.00257611000008', 'epoch': datetime.datetime(2025, 8, 9, 20, 33, 40, 949280)}"
d99fb2d7-4970-4617-b7d2-fc97ba089872,U//PR-EXO-ELSETS,38992,2025-08-09T20:07:33.408135Z,1.002656083680669,38992,False,0.0003444863027590195,0.06955272150260929,351.3863395787321,138.8868211631744,151.7839721134058,0.0,0.0,0.0,42166.46563648252,1436.185371472417,42180.99140633005,42151.93986663499,38992,1 38992U 12062B   25221.83858111 +.00000000 +00000+0 +00000+0 2 99998,2 38992   0.0696 351.3863 0003444 138.8868 151.7840  1.00265608000004,2025-08-09T20:30:31.231Z,system.exo,EXO,REAL,2,OPS1,"{'NORAD_ID': 38992, 'classification': 'U', 'COSPAR_ID': '12062B', 'BC': 0.0, 'n_ddot': 0.0, 'B_star': 0.0, 'ephemeris_type': 2, 'elset_num': 9999, 'inclination': 0.0696, 'RAAN': 351.3863, 'eccentricity': 0.0003444, 'perigee': 138.8868, 'mean_anomaly': 151.784, 'mean_motion': 1.00265608, 'rev_num': 0, 'line1': '1 38992U 12062B   25221.83858111 +.00000000 +00000+0 +00000+0 2 99998', 'line2': '2 38992   0.0696 351.3863 0003444 138.8868 151.7840  1.00265608000004', 'epoch': datetime.datetime(2025, 8, 9, 20, 7, 33, 407904)}"
c5d50721-b0bf-4dd4-bc72-45a0e5d6980a,U//PR-EXO-ELSETS,14940,2025-08-09T19:41:24.796084Z,1.002821276160143,14940,False,0.0005550664984940456,9.338571553838552,314.325701267839,265.3660542844085,88.00384070965323,0.0,0.0,0.0,42161.83485169816,1435.948791906209,42185.23747373938,42138.43222965694,14940,1 14940U 84041A   25221.82042588 +.00000000 +00000+0 +00000+0 2 99993,2 14940   9.3386 314.3257 0005550 265.3661  88.0038  1.00282127000008,2025-08-09T20:12:32.438Z,system.exo,EXO,REAL,2,OPS1,"{'NORAD_ID': 14940, 'classification': 'U', 'COSPAR_ID': '84041A', 'BC': 0.0, 'n_ddot': 0.0, 'B_star': 0.0, 'ephemeris_type': 2, 'elset_num': 9999, 'inclination': 9.3386, 'RAAN': 314.3257, 'eccentricity': 0.000555, 'perigee': 265.3661, 'mean_anomaly': 88.0038, 'mean_motion': 1.00282127, 'rev_num': 0, 'line1': '1 14940U 84041A   25221.82042588 +.00000000 +00000+0 +00000+0 2 99993', 'line2': '2 14940   9.3386 314.3257 0005550 265.3661  88.0038  1.00282127000008', 'epoch': datetime.datetime(2025, 8, 9, 19, 41, 24, 796032)}"
541d1fbf-e138-4b59-802e-d29241ea74f5,U//PR-EXO-ELSETS,43286,2025-08-09T17:14:21.806966Z,1.002700467882174,43286,False,0.001826506666693113,28.84869848466593,79.04912547194542,179.2366333632963,13.87445980385903,0.0,0.0,0.0,42165.22130428505,1436.121799206354,42242.23636209992,42088.20624647018,43286,1 43286U 18035A   25221.71830795 +.00000000 +00000+0 +00000+0 2 99991,2 43286  28.8487  79.0491 0018265 179.2366  13.8745  1.00270046000006,2025-08-09T18:30:31.852Z,system.exo,EXO,REAL,2,OPS1,"{'NORAD_ID': 43286, 'classification': 'U', 'COSPAR_ID': '18035A', 'BC': 0.0, 'n_ddot': 0.0, 'B_star': 0.0, 'ephemeris_type': 2, 'elset_num': 9999, 'inclination': 28.8487, 'RAAN': 79.0491, 'eccentricity': 0.0018265, 'perigee': 179.2366, 'mean_anomaly': 13.8745, 'mean_motion': 1.00270046, 'rev_num': 0, 'line1': '1 43286U 18035A   25221.71830795 +.00000000 +00000+0 +00000+0 2 99991', 'line2': '2 43286  28.8487  79.0491 0018265 179.2366  13.8745  1.00270046000006', 'epoch': datetime.datetime(2025, 8, 9, 17, 14, 21, 806880)}"
081d5765-8436-43e8-a9d8-66784c1548ec,U//PR-EXO-ELSETS,28946,2025-08-09T17:52:20.258700Z,0.9811479146277887,28946,False,0.0007008096486948066,1.262788218798967,89.25079758791814,175.273948688657,151.1920946895348,0.0,0.0,0.0,42780.46876724655,1467.66861400942,42810.44973253433,42750.48780195878,28946,1 28946U 06007B   25221.74467892 +.00000000 +00000+0 +00000+0 2 99990,2 28946   1.2628  89.2508 0007008 175.2739 151.1921  0.98114791000001,2025-08-09T21:36:31.602Z,system.exo,EXO,REAL,2,OPS1,"{'NORAD_ID': 28946, 'classification': 'U', 'COSPAR_ID': '06007B', 'BC': 0.0, 'n_ddot': 0.0, 'B_star': 0.0, 'ephemeris_type': 2, 'elset_num': 9999, 'inclination': 1.2628, 'RAAN': 89.2508, 'eccentricity': 0.0007008, 'perigee': 175.2739, 'mean_anomaly': 151.1921, 'mean_motion': 0.98114791, 'rev_num': 0, 'line1': '1 28946U 06007B   25221.74467892 +.00000000 +00000+0 +00000+0 2 99990', 'line2': '2 28946   1.2628  89.2508 0007008 175.2739 151.1921  0.98114791000001', 'epoch': datetime.datetime(2025, 8, 9, 17, 52, 20, 258688)}"
56e051f1-6037-48c2-91d4-e1bc77b1e80e,U//PR-EXO-ELSETS,19217,2025-08-09T17:10:47.021891Z,0.9939383733426552,19217,False,0.0001329347878186371,14.43866307280057,6.958754428408442,162.6084915153702,212.9848744266143,0.0,0.0,0.0,42412.66451037861,1448.781975443026,42418.30262893613,42407.02639182111,19217,1 19217U 88051C   25221.71582201 +.00000000 +00000+0 +00000+0 2 99999,2 19217  14.4387   6.9588 0001329 162.6085 212.9849  0.99393837000004,2025-08-09T18:18:31.771Z,system.exo,EXO,REAL,2,OPS1,"{'NORAD_ID': 19217, 'classification': 'U', 'COSPAR_ID': '88051C', 'BC': 0.0, 'n_ddot': 0.0, 'B_star': 0.0, 'ephemeris_type': 2, 'elset_num': 9999, 'inclination': 14.4387, 'RAAN': 6.9588, 'eccentricity': 0.0001329, 'perigee': 162.6085, 'mean_anomaly': 212.9849, 'mean_motion': 0.99393837, 'rev_num': 0, 'line1': '1 19217U 88051C   25221.71582201 +.00000000 +00000+0 +00000+0 2 99999', 'line2': '2 19217  14.4387   6.9588 0001329 162.6085 212.9849  0.99393837000004', 'epoch': datetime.datetime(2025, 8, 9, 17, 10, 47, 21664)}"
4ce47529-0222-452e-ba33-d7af31810631,U//PR-EXO-ELSETS,26853,2025-08-09T18:49:50.233590Z,0.9903752093730708,26853,False,0.0002454381314353167,7.412861446554463,67.62953579219887,358.0067613503455,336.1237112709326,0.0,0.0,0.0,42514.33157073619,1453.9943915918,42524.76620883614,42503.89693263625,26853,1 26853U 01025A   25221.78460919 +.00000000 +00000+0 +00000+0 2 99997,2 26853   7.4129  67.6295 0002454 358.0068 336.1237  0.99037520000009,2025-08-09T20:39:30.712Z,system.exo,EXO,REAL,2,OPS1,"{'NORAD_ID': 26853, 'classification': 'U', 'COSPAR_ID': '01025A', 'BC': 0.0, 'n_ddot': 0.0, 'B_star': 0.0, 'ephemeris_type': 2, 'elset_num': 9999, 'inclination': 7.4129, 'RAAN': 67.6295, 'eccentricity': 0.0002454, 'perigee': 358.0068, 'mean_anomaly': 336.1237, 'mean_motion': 0.9903752, 'rev_num': 0, 'line1': '1 26853U 01025A   25221.78460919 +.00000000 +00000+0 +00000+0 2 99997', 'line2': '2 26853   7.4129  67.6295 0002454 358.0068 336.1237  0.99037520000009', 'epoch': datetime.datetime(2025, 8, 9, 18, 49, 50, 234016)}"
